GLOBALSTAR M069         
1 31573U 07020C   26204.23857084 -.00000062  00000+0  28084-3 0  9992
2 31573  52.0020 150.0854 0001471 228.3389 277.9110 12.23472604883211
GLOBALSTAR M072         
1 31574U 07020D   26204.35795720 -.00000082  00000+0  32091-4 0  9990
2 31574  51.9954   3.9489 0001636  50.1578 315.8926 11.91658768879291
GLOBALSTAR M066         
1 32265U 07048C   26204.62752138 -.00000020  00000+0  62910-3 0  9998
2 32265  51.9610 313.3048 0005452 119.0024 279.7716 12.30390673864716
GLOBALSTAR M079         
1 37188U 10054A   26204.39280505 -.00000098  00000+0  31130-4 0  9992
2 37188  52.0060 358.4547 0001107  90.8798 285.8980 12.62266436727125
GLOBALSTAR M074         
1 37189U 10054B   26203.70807359 -.00000103  00000+0  61618-5 0  9991
2 37189  52.0038 359.7991 0000833 104.9572 278.6412 12.62262042727646
GLOBALSTAR M076         
1 37190U 10054C   26204.44937353 -.00000081  00000+0  12603-3 0  9996
2 37190  52.0054 357.7490 0001074 103.3381 290.3890 12.62262713727452
GLOBALSTAR M077         
1 37191U 10054D   26204.10514396 -.00000089  00000+0 -19578-3 0  9995
2 37191  51.9963  88.1305 0002148 239.9139 289.0346 11.67547147725337
GLOBALSTAR M075         
1 37192U 10054E   26204.53798488 -.00000102  00000+0  99945-5 0  9992
2 37192  51.9957  39.5122 0000797  76.6603 300.6199 12.62267911726531
GLOBALSTAR M073         
1 37193U 10054F   26204.30303903 -.00000099  00000+0  26151-4 0  9995
2 37193  52.0079 314.3577 0000959 109.0082 278.3995 12.62266988728494
GLOBALSTAR M083         
1 37739U 11033A   26204.58021524 -.00000088  00000+0  89644-4 0  9999
2 37739  51.9848 261.6938 0000668 113.8242  34.9034 12.62258555697547
GLOBALSTAR M088         
1 37740U 11033B   26204.31993882 -.00000088  00000+0  86538-4 0  9996
2 37740  52.0195 168.9984 0000198  33.4122 130.8600 12.62269562693055
GLOBALSTAR M091         
1 37741U 11033C   26204.57554858 -.00000105  00000+0 -53535-5 0  9994
2 37741  51.9992 131.1332 0000619  38.2413 148.6110 12.62264337693870
GLOBALSTAR M085         
1 37742U 11033D   26204.60339611 -.00000101  00000+0  16728-4 0  9994
2 37742  52.0129  82.3726 0000924  55.9336 317.5201 12.62264575694398
GLOBALSTAR M081         
1 37743U 11033E   26204.63030291 -.00000101  00000+0  14968-4 0  9994
2 37743  51.9961  84.6850 0000790  66.8786 308.8052 12.62265462694545
GLOBALSTAR M089         
1 37744U 11033F   26204.07110159 -.00000099  00000+0  29140-4 0  9999
2 37744  51.9941  40.5389 0000725  99.3141  75.2064 12.62267686695310
GLOBALSTAR M084         
1 38040U 11080A   26204.38061166 -.00000090  00000+0  74837-4 0  9992
2 38040  52.0002 267.0994 0000650 145.0252 296.3303 12.62263748673332
GLOBALSTAR M080         
1 38041U 11080B   26204.35144288 -.00000092  00000+0  68017-4 0  9992
2 38041  52.0053 268.9196 0000292  63.2595  15.1079 12.62257668673450
GLOBALSTAR M082         
1 38042U 11080C   26204.46680652 -.00000082  00000+0  12028-3 0  9994
2 38042  52.0049 224.0712 0000236  43.8468 129.1413 12.62264400674174
GLOBALSTAR M092         
1 38043U 11080D   26204.33069212 -.00000089  00000+0  80039-4 0  9999
2 38043  52.0104 314.8846 0000695 113.6280 279.9921 12.62268016672612
GLOBALSTAR M090         
1 38044U 11080E   26204.23846400 -.00000089  00000+0  80019-4 0  9999
2 38044  52.0096 218.7334 0000392  79.0708  14.7144 12.62269634674263
GLOBALSTAR M086         
1 38045U 11080F   26204.34082174 -.00000089  00000+0  81517-4 0  9996
2 38045  51.9867 218.2913 0001380 123.1020 340.3198 12.62287844674228
GLOBALSTAR M097         
1 39072U 13005A   26204.50834297 -.00000109  00000+0 -26898-4 0  9990
2 39072  52.0037 132.7701 0000610  49.9545 310.1375 12.62271335621498
GLOBALSTAR M093         
1 39073U 13005B   26204.16487538 -.00000099  00000+0  26942-4 0  9992
2 39073  52.0101 127.1770 0000824  55.3218 304.7727 12.62266458621401
GLOBALSTAR M094         
1 39074U 13005C   26204.56065947 -.00000104  00000+0  59948-6 0  9994
2 39074  51.9969  40.0524 0001048  77.3511 282.7473 12.62264263623060
GLOBALSTAR M096         
1 39075U 13005D   26203.94070740 -.00000100  00000+0  22972-4 0  9994
2 39075  52.0077  90.7705 0000868  55.8955 304.1994 12.62265940621909
GLOBALSTAR M078         
1 39076U 13005E   26204.23059933 -.00000091  00000+0  72058-4 0  9998
2 39076  51.9852 173.8478 0001029   0.4878 359.5989 12.62260128620561
GLOBALSTAR M095         
1 39077U 13005F   26204.17807706 -.00000095  00000+0  48283-4 0  9998
2 39077  52.0060 171.6621 0000638  25.4631 334.6267 12.62264106620417
GLOBALSTAR M087         
1 52888U 22064A   26204.34952117 -.00000094  00000+0  55917-4 0  9995
2 52888  52.0013 312.3597 0000849  95.4393 264.6571 12.62269513195708
